[{"OBJECT_NAME":"STARLINK-31208","OBJECT_ID":"2024-038Q","EPOCH":"2026-03-08T21:56:06.234720","MEAN_MOTION":15.27576868,"ECCENTRICITY":0.00011699,"INCLINATION":43.0025,"RA_OF_ASC_NODE":31.8631,"ARG_OF_PERICENTER":253.0933,"MEAN_ANOMALY":106.979,"EPHEMERIS_TYPE":0,"CLASSIFICATION_TYPE":"U","NORAD_CAT_ID":59037,"ELEMENT_SET_NO":999,"REV_AT_EPOCH":11469,"BSTAR":-2.4145218e-5,"MEAN_MOTION_DOT":-9.26e-6,"MEAN_MOTION_DDOT":0},{"OBJECT_NAME":"AZUR (GRS A)","OBJECT_ID":"1969-097A","EPOCH":"2026-03-09T21:41:10.048992","MEAN_MOTION":15.2598686,"ECCENTRICITY":0.02451425,"INCLINATION":102.6572,"RA_OF_ASC_NODE":142.7505,"ARG_OF_PERICENTER":125.1196,"MEAN_ANOMALY":237.3267,"EPHEMERIS_TYPE":0,"CLASSIFICATION_TYPE":"U","NORAD_CAT_ID":4221,"ELEMENT_SET_NO":999,"REV_AT_EPOCH":71023,"BSTAR":0.0010311441,"MEAN_MOTION_DOT":0.00065195,"MEAN_MOTION_DDOT":0}]
